{
  "norad_id": 64134,
  "name": "STARLINK-11714 [DTC]",
  "history": [
    {
      "epoch": "2026-03-28T18:18:59.920992",
      "apogee_km": 357.2758448374225,
      "perigee_km": 355.65684619316016,
      "latitude_deg": 33.609772553149256,
      "longitude_deg": -53.33342112018727,
      "semi_major_axis_km": 6734.603345515291,
      "eccentricity": 0.0001202,
      "inclination_deg": 43.001,
      "raan_deg": 218.4516,
      "arg_perigee_deg": 281.8624,
      "mean_anomaly_deg": 78.2109,
      "mean_motion_rev_day": 15.70850047
    }
  ]
}